{
    "links": {
        "self": "http://www.neowsapp.com/rest/v1/neo/3363432?api_key=iIulBulltgU6a56xZRHN4H3l9WmuAYTsLGpBGhQ2"
    },
    "id": "3363432",
    "neo_reference_id": "3363432",
    "name": "(2006 XA3)",
    "designation": "2006 XA3",
    "nasa_jpl_url": "http://ssd.jpl.nasa.gov/sbdb.cgi?sstr=3363432",
    "absolute_magnitude_h": 25.2,
    "estimated_diameter": {
        "kilometers": {
            "estimated_diameter_min": 0.0242412481,
            "estimated_diameter_max": 0.0542050786
        },
        "meters": {
            "estimated_diameter_min": 24.2412481101,
            "estimated_diameter_max": 54.2050786336
        },
        "miles": {
            "estimated_diameter_min": 0.0150628086,
            "estimated_diameter_max": 0.0336814639
        },
        "feet": {
            "estimated_diameter_min": 79.5316564495,
            "estimated_diameter_max": 177.8381901842
        }
    },
    "is_potentially_hazardous_asteroid": false,
    "close_approach_data": [
        {
            "close_approach_date": "2006-12-05",
            "close_approach_date_full": "2006-Dec-05 11:19",
            "epoch_date_close_approach": 1165317540000,
            "relative_velocity": {
                "kilometers_per_second": "12.0006445245",
                "kilometers_per_hour": "43202.3202880564",
                "miles_per_hour": "26844.2417367648"
            },
            "miss_distance": {
                "astronomical": "0.0221909197",
                "lunar": "8.6322677633",
                "kilometers": "3319714.320461039",
                "miles": "2062774.8265947782"
            },
            "orbiting_body": "Earth"
        }
    ],
    "orbital_data": {
        "orbit_id": "10",
        "orbit_determination_date": "2017-04-06 09:07:21",
        "first_observation_date": "2006-12-13",
        "last_observation_date": "2006-12-21",
        "data_arc_in_days": 8,
        "observations_used": 33,
        "orbit_uncertainty": "8",
        "minimum_orbit_intersection": ".0144714",
        "jupiter_tisserand_invariant": "3.254",
        "epoch_osculation": "2454085.5",
        "eccentricity": ".6225427714577441",
        "semi_major_axis": "2.360839814354264",
        "inclination": "4.979425858168092",
        "ascending_node_longitude": "84.88381285253317",
        "orbital_period": "1324.946090205893",
        "perihelion_distance": ".8911160533583744",
        "perihelion_argument": "308.534173910291",
        "aphelion_distance": "3.830563575350153",
        "perihelion_time": "2454046.012007041828",
        "mean_anomaly": "10.72924971817747",
        "mean_motion": ".2717091681398576",
        "equinox": "J2000",
        "orbit_class": {
            "orbit_class_type": "APO",
            "orbit_class_description": "Near-Earth asteroid orbits which cross the Earth’s orbit similar to that of 1862 Apollo",
            "orbit_class_range": "a (semi-major axis) > 1.0 AU; q (perihelion) < 1.017 AU"
        }
    },
    "is_sentry_object": false
}